[{"OBJECT_NAME":"CENTISPACE-1 S13","OBJECT_ID":"2025-007H","EPOCH":"2026-03-09T23:09:05.132736","MEAN_MOTION":13.82892248,"ECCENTRICITY":0.0009712,"INCLINATION":54.9822,"RA_OF_ASC_NODE":278.4888,"ARG_OF_PERICENTER":239.9953,"MEAN_ANOMALY":120.0041,"EPHEMERIS_TYPE":0,"CLASSIFICATION_TYPE":"U","NORAD_CAT_ID":62582,"ELEMENT_SET_NO":999,"REV_AT_EPOCH":6102,"BSTAR":0.00010239415,"MEAN_MOTION_DOT":-2.9e-7,"MEAN_MOTION_DDOT":0},{"OBJECT_NAME":"SL-8 R\/B","OBJECT_ID":"1983-001B","EPOCH":"2026-03-09T23:39:06.371424","MEAN_MOTION":13.79159707,"ECCENTRICITY":0.00282146,"INCLINATION":82.9065,"RA_OF_ASC_NODE":80.6778,"ARG_OF_PERICENTER":38.9871,"MEAN_ANOMALY":321.3314,"EPHEMERIS_TYPE":0,"CLASSIFICATION_TYPE":"U","NORAD_CAT_ID":13758,"ELEMENT_SET_NO":999,"REV_AT_EPOCH":17071,"BSTAR":0.00015867055,"MEAN_MOTION_DOT":1.78e-6,"MEAN_MOTION_DDOT":0}]
